{
  "norad_id": 47354,
  "name": "STARLINK-2046",
  "history": [
    {
      "epoch": "2026-03-28T19:56:30.615360",
      "apogee_km": 476.17005473606605,
      "perigee_km": 474.16491490989665,
      "latitude_deg": -26.832953358416347,
      "longitude_deg": 75.1673504000064,
      "semi_major_axis_km": 6853.304484822981,
      "eccentricity": 0.00014629,
      "inclination_deg": 53.1599,
      "raan_deg": 295.0533,
      "arg_perigee_deg": 86.8397,
      "mean_anomaly_deg": 273.2772,
      "mean_motion_rev_day": 15.30215937
    }
  ]
}